WORLDVIEW-1 (WV-1)      
1 32060U 07041A   26202.22776613  .00004452  00000+0  18347-3 0  9999
2 32060  97.3903 321.4966 0002126 182.1210 178.0019 15.24600209 48064
WORLDVIEW-2 (WV-2)      
1 35946U 09055A   26202.26085847  .00000058  00000+0  33653-4 0  9994
2 35946  98.4751 275.2465 0005495 115.4654 244.7103 14.37908103880545
WORLDVIEW-3 (WV-3)      
1 40115U 14048A   26202.26121053  .00000538  00000+0  69198-4 0  9992
2 40115  97.8551 276.6219 0001736 146.8236 213.3088 14.85070297646967
